LILACSAT-2
1 40908U 15049K   17236.86364973  .00000537  00000-0  33878-4 0  9993
2 40908  97.4636 240.4441 0015510 339.5033  20.5574 15.13178857106551
XW-2F
1 40910U 15049M   17236.82434759  .00001593  00000-0  87036-4 0  9990
2 40910  97.4551 241.4899 0014702 338.8613  21.2011 15.15673683106548
XW-2B
1 40911U 15049N   17236.87073476  .00001052  00000-0  60264-4 0  9995
2 40911  97.4574 241.1517 0013890 342.0632  18.0108 15.14705571106534
DCBB
1 40912U 15049P   17236.72687506  .00001824  00000-0  93414-4 0  9995
2 40912  97.4517 243.4287 0014522 330.3930 148.2787 15.17790991106683
TW-1C
1 40926U 15051B   17236.74110611  .00009041  00000-0  20280-3 0  9992
2 40926  97.2241 275.7889 0009362 282.1291 172.0832 15.43582816107496
TW-1A
1 40928U 15051D   17236.73901747  .00004136  00000-0  11802-3 0  9991
2 40928  97.2220 271.3207 0011243 318.3070 135.1501 15.36535873107226
IO-86
1 40931U 15052B   17236.46662658  .00000260  00000-0 -53105-4 0  9999
2 40931   6.0004 105.7954 0013409 133.8246 226.3358 14.76536579103077
GomX-3
1 40949U 98067HA  16292.18357804  .08527750  12374-4  77882-3 0  9992
2 40949  51.6055 106.7696 0006699 286.1344  73.8944 16.38002265 59645
LQSat
1 40958U 15057A   17236.72234314  .00000057  00000-0  16623-4 0  9993
2 40958  97.9742 310.8301 0017475 202.4577 157.5870 14.72978907101204
AO-85
1 40967U 15058D   17236.35618192  .00000259  00000-0  48933-4 0 00683
2 40967 064.7782 012.0931 0175484 052.8757 308.8261 14.75473305009850
ATHENOXAT-1
1 41168U 15077C   17236.71405093  .00002734  00000-0  11702-3 0  9998
2 41168  14.9855  28.7647 0011819 248.1301 304.1518 15.11751489 93429
ChubuSat-2
1 41338U 16012B   17236.77110523  .00000460  00000-0  29481-4 0  9992
2 41338  31.0042  36.6678 0013936  17.6457 342.4661 14.99777913 83294
ChubuSat-3
1 41339U 16012C   17236.75654325  .00000457  00000-0  29073-4 0  9997
2 41339  31.0120  35.7949 0013911  24.2620 335.8664 14.99980542 83273
Horyu-4
1 41340U 16012D   17236.56691276  .00000713  00000-0  48306-4 0  9999
2 41340 031.0061 034.0247 0014188 031.3419 328.8060 15.00653440083295
OUFTI-1
1 41458U 16025C   17236.60495952  .00003771  00000-0  20249-3 0  9993
2 41458 098.1775 278.0938 0174576 061.3251 300.5406 15.03408226072868
e-st at r-II
1 41459U 16025D   17236.76649193  .00003045  00000-0  16409-3 0  9996
2 41459  98.1810 278.2053 0176419  61.1760 300.7044 15.03244952 72875
AAUSAT4
1 41460U 16025E   17236.78846545  .00004452  00000-0  23841-3 0  9991
2 41460  98.1739 278.3671 0167909  58.9755 302.7818 15.04217862 72902
NODES 1
1 41477U 98067HX  17236.43591152  .00236534  33002-4  59202-3 0  9998
2 41477 051.6235 005.5875 0005725 329.3484 030.7189 15.95249944072918
NODES 2
1 41478U 98067HY  17236.45146913  .00210819  28142-4  57166-3 0  9996
2 41478 051.6275 006.5096 0005331 328.2053 031.8632 15.93791648072907
LO-87
1 41557U 16033B   17236.81417026  .00002385  00000-0  91893-4 0  9995
2 41557  97.4601 316.3282 0015707 122.2661 238.0103 15.27239702 68904
NuSat2
1 41558U 16033C   17236.52659578  .00002394  00000-0  92738-4 0  9993
2 41558 097.4630 316.1030 0015161 121.9004 238.3712 15.27056635068852
Lapan A3
1 41603U 16040E   17236.86863008  .00000198  00000-0  12610-4 0  9995
2 41603  97.4555 298.0113 0012925 187.9768 274.9016 15.19384987 65083
Swayam
1 41607U 16040J   17236.62078575  .00002480  00000-0  11477-3 0  9995
2 41607  97.4546 298.2131 0014040 190.6025 169.4917 15.20999054 65005
Pratham
1 41783U 16059A   17236.21948604  .00000088  00000-0  26674-4 0  9992
2 41783 098.1613 296.8685 0032527 308.9364 050.8940 14.62851732048545
AlSat 1N
1 41789U 16059G   17236.76680176  .00000119  00000-0  31996-4 0  9993
2 41789  98.1616 298.0442 0027300 301.4721  58.3809 14.64066623 48644
ScatSat
1 41790U 16059H   17236.55869366  .00000026  00000-0  17650-4 0  9990
2 41790 098.3044 283.9985 0017216 295.8265 064.1154 14.51719735048173
TY-1
1 41844U 16066D   17236.77914127  .00001692  00000-0  76522-4 0  9991
2 41844  97.4062 242.9034 0016336   4.9421  80.1585 15.22195917 43774
CAS-2T
1 41845U 16066E   17236.66649493  .00000284  00000-0  52873-4 0  9990
2 41845  98.7760 253.9278 0367478  45.1798 317.8642 14.37779541 41336
Pegasus-1
1 41846U 16066F   17236.75506208  .00000651  00000-0  10887-3 0  9993
2 41846  98.7790 253.7538 0370064  46.3980 316.7291 14.37072133 41328
STARS-C
1 41895U 98067KR  17236.55533135  .00043211  00000-0  43558-3 0  9995
2 41895 051.6371 048.1968 0004319 214.8406 145.2307 15.64929996038687
Tancredo 1
1 41931U 98067KT  17236.55344801  .00110371  00000-0  71172-3 0  9991
2 41931 051.6337 041.3712 0004232 205.0839 154.9956 15.75291080034342
TO-89
1 41932U 98067KU  17236.49597152  .00023641  00000-0  28241-3 0  9996
2 41932 051.6404 051.5907 0005378 163.3587 196.7584 15.60885269034203
AOBA-V3LOX3
1 41935U 98067KX  17236.85306021  .00022981  00000-0  26937-3 0  9998
2 41935  51.6402  49.4701 0004718 169.8034 190.3056 15.61401928 34365
OSNSAT
1 41939U 98067KZ  17236.50932533  .00057691  00000-0  52206-3 0  9991
2 41939 051.6370 046.3779 0005490 178.1257 181.9760 15.67489728033639
EO-88
1 42017U 17008BX  17236.56381834  .00002543  00000-0  11053-3 0  9994
2 42017 097.4892 297.8755 0006147 357.0489 003.0710 15.23197427028891
HAVELSAT
1 42700U 98067LH  17236.51578598  .00023678  00000-0  32288-3 0  9992
2 42700 051.6394 056.1994 0006393 214.8793 145.1781 15.57365466015586
SOMP2
1 42701U 98067LJ  17236.58734905  .00019955  00000-0  27589-3 0  9997
2 42701 051.6400 055.9305 0006323 215.3550 144.7023 15.57111533015586
Columbia
1 42702U 98067LK  17236.58126442  .00041822  00000-0  51902-3 0  9993
2 42702  51.6389  55.1366 0006819 212.4361 147.6213 15.59566654 15527
PHOENIX
1 42706U 98067LP  17236.58413003  .00018938  00000-0  26162-3 0  9991
2 42706 051.6401 055.9110 0001917 182.4320 177.6663 15.57187584015505
X-CubeSat
1 42707U 98067LQ  17236.58483520  .00019832  00000-0  27306-3 0  9998
2 42707  51.6394  55.9125 0001976 184.0506 176.0470 15.57242556 15490
qbee
1 42708U 98067LR  17236.58725069  .00019265  00000-0  26594-3 0  9994
2 42708 051.6395 055.9286 0002015 184.5626 175.5348 15.57193947015456
ZA-AeroSat
1 42713U 98067LU  17236.86315896  .00017265  00000-0  24330-3 0  9998
2 42713  51.6399  54.7712 0002789 150.1246 209.9905 15.56720926 15208
LINK
1 42714U 98067LV  17236.59592425  .00023806  00000-0  32556-3 0  9991
2 42714  51.6388  55.9838 0002933 158.5912 201.5203 15.57300214 15273
UPSat
1 42716U 98067LX  17236.58203423  .00022026  00000-0  29983-3 0  9992
2 42716  51.6397  55.8937 0004780 216.2191 143.8478 15.57469163 15290
SpaceCube
1 42717U 98067LY  17236.59521386  .00018556  00000-0  25773-3 0  9991
2 42717  51.6393  55.9813 0004638 216.1195 143.9485 15.57050713 14538
Hoopoe
1 42718U 98067LZ  17236.58883465  .00020327  00000-0  27934-3 0  9990
2 42718  51.6397  55.9402 0004725 215.1785 144.8895 15.57269607 14537
Challenger
1 42721U 98067MA  17236.59385658  .00026201  00000-0  35336-3 0  9998
2 42721  51.6390  55.9690 0007981 198.7870 161.2829 15.57587688 14230
NJUST-1
1 42722U 98067MB  17236.88253599  .00016168  00000-0  23036-3 0  9994
2 42722  51.6398  54.8973 0007742 200.0067 160.0622 15.56454231 14279
UNSW-EC0
1 42723U 98067MC  17236.86901163  .00021001  00000-0  29128-3 0  9990
2 42723  51.6398  54.8100 0007668 199.7268 160.3429 15.56978903 14259
DUTHsat
1 42724U 98067MD  17236.85803025  .00026911  00000-0  36489-3 0  9991
2 42724  51.6396  54.7354 0006915 202.4927 157.5763 15.57436901 14174
LO-90
1 42725U 98067ME  17236.88450694  .00018339  00000-0  25970-3 0  9993
2 42725  51.6399  54.9123 0006741 202.7001 157.3693 15.56523584 14170
nSIGHT1
1 42726U 98067MF  17236.58254609  .00014266  00000-0  20897-3 0  9997
2 42726  51.6400  56.6465 0006575 201.8286 158.2426 15.55822158 14130
QBITO
1 42728U 98067MH  17236.61555476  .00019671  00000-0  27504-3 0  9996
2 42728 051.6400 056.1192 0003979 205.7913 154.2881 15.56829428013946
Aalto-2
1 42729U 98067MJ  17236.87213554  .00019604  00000-0  27400-3 0  9994
2 42729  51.6397  54.8306 0003965 207.0998 152.9787 15.56841454 13995
SUSat
1 42730U 98067MK  17236.87524885  .00018186  00000-0  25592-3 0  9992
2 42730  51.6394  54.8501 0004017 204.8649 155.2150 15.56714763 13989
i-INSPIRE II
1 42731U 98067ML  17236.86683921  .00024392  00000-0  33564-3 0  9993
2 42731  51.6391  54.7885 0007679 154.0216 206.1162 15.57094469 14035
PolyITAN-2-SAU
1 42732U 98067MM  17236.87011034  .00020319  00000-0  28287-3 0  9996
2 42732  51.6389  54.8090 0007770 153.3372 206.8021 15.56902224 14036
SNUSAT-1
1 42733U 98067MN  17236.87615109  .00019815  00000-0  27772-3 0  9997
2 42733  51.6390  54.8500 0007682 154.4363 205.7010 15.56737812 14034
ExAlta-1
1 42734U 98067MP  17236.86665286  .00022914  00000-0  31596-3 0  9991
2 42734  51.6392  54.7886 0009336 176.8989 183.2063 15.57062488 13985
Aoxiang-1
1 42735U 98067MQ  17236.55954676  .00016305  00000-0  23181-3 0  9990
2 42735 051.6395 056.4898 0008390 195.6971 164.3762 15.56500620015353
BeEagleSat
1 42736U 98067MR  17236.55836987  .00017665  00000-0  24966-3 0  9997
2 42736 051.6394 056.4819 0008328 194.9614 165.1132 15.56595160014041
Atlantis
1 42737U 98067MS  17236.56923227  .00039235  00000-0  50501-3 0  9994
2 42737 051.6382 055.8011 0008520 195.4020 164.6714 15.58615727013949
CAS-4B
1 42759U 17034B   17236.87240741  .00000476  00000-0  43253-4 0  9992
2 42759  43.0192 269.6244 0007210  46.9239 311.4323 15.08953427 10679
CAS-4A
1 42761U 17034D   17236.86887731  .00000519  00000-0  45833-4 0  9994
2 42761  43.0194 269.5964 0007655  48.0449 309.8912 15.09027766 10664
UCLSat
1 42765U 17036A   17236.45201788  .00002345  00000-0  10924-3 0  9998
2 42765 097.4440 295.4880 0013164 042.6556 317.5699 15.20823214010181
NIUSat
1 42766U 17036B   17236.56921946  .00001596  00000-0  78081-4 0  9992
2 42766 097.4446 295.4869 0016949 026.5574 333.6525 15.19551506009477
